ONEWEB-0613             
1 56071U 23043AB  24024.59579431 -.00000342  00000+0 -94339-3 0  9997
2 56071  87.8983  73.3024 0002815 105.6958 254.4483 13.15545635 41444
ONEWEB-0630             
1 56072U 23043AC  24024.59102639  .00000148  00000+0  35876-3 0  9993
2 56072  87.8968  73.2959 0002297  95.9519 264.1873 13.15546885 41430
ONEWEB-0632             
1 56073U 23043AD  24024.58626632  .00000156  00000+0  38045-3 0  9997
2 56073  87.8969  73.3150 0001944 110.6705 249.4634 13.15550551 41432
ONEWEB-0633             
1 56074U 23043AE  24024.57993623  .00000175  00000+0  43201-3 0  9995
2 56074  87.8965  73.3034 0002417  90.8273 269.3134 13.15547307 41414
ONEWEB-0634             
1 56075U 23043AF  24024.56567338  .00000066  00000+0  14161-3 0  9997
2 56075  87.8971  73.3084 0001833  87.0530 273.0810 13.15549668 41406
ONEWEB-0635             
1 56076U 23043AG  24024.63698910  .00000000  00000+0 -33771-4 0  9995
2 56076  87.8966  73.3523 0001978 114.1061 246.0276 13.15548762 42355
ONEWEB-0636             
1 56077U 23043AH  24024.55298701 -.00000301  00000+0 -83313-3 0  9992
2 56077  87.8968  73.3381 0001801 110.9760 249.1563 13.15547036 41417
ONEWEB-0637             
1 56078U 23043AJ  24024.54666822 -.00000103  00000+0 -30798-3 0  9994
2 56078  87.8968  73.3138 0001783 112.3294 247.8025 13.15548043 41434
